{"spkid": "54055113", "covariance": {"labels": ["e", "q", "tp", "node", "peri", "i"], "elements": [{"label": "e", "sigma": 5.95184117883201e-07, "name": "e", "units": null, "title": "eccentricity", "value": ".2436509814177976"}, {"label": "q", "units": "au", "title": "perihelion distance", "value": ".7985856863991996", "sigma": 4.91601808823307e-07, "name": "q"}, {"name": "tp", "sigma": 3.21676931606243e-05, "units": "TDB", "value": "2459226.676991786614", "title": "time of perihelion passage", "label": "tp"}, {"label": "node", "sigma": 3.12165869664934e-05, "name": "om", "units": "deg", "title": "longitude of the ascending node", "value": "222.7211614509934"}, {"label": "peri", "title": "argument of perihelion", "value": "265.9022777768666", "units": "deg", "sigma": 3.72845326929013e-05, "name": "w"}, {"label": "i", "sigma": 2.07015688213195e-05, "name": "i", "units": "deg", "value": "8.71758670499506", "title": "inclination"}], "data": [["3.542441341804047E-13", "-2.923091835716408E-13", "-1.424178944953475E-11", "2.243235886706108E-12", "1.043719072268984E-11", "9.696311098590049E-12"], ["-2.923091835716408E-13", "2.416723384383472E-13", "1.170549417601566E-11", "-1.771530905949368E-12", "-8.798298430916447E-12", "-8.020037689452175E-12"], ["-1.424178944953475E-11", "1.170549417601566E-11", "1.034760483276078E-9", "1.914486210351588E-11", "-1.782247468350819E-10", "-2.683707763357543E-10"], ["2.243235886706108E-12", "-1.771530905949368E-12", "1.914486210351588E-11", "9.744753018366471E-10", "-8.159075505281289E-10", "-2.434930976390042E-10"], ["1.043719072268984E-11", "-8.798298430916447E-12", "-1.782247468350819E-10", "-8.159075505281289E-10", "1.390136378128025E-9", "6.796316629792452E-10"], ["9.696311098590049E-12", "-8.020037689452175E-12", "-2.683707763357543E-10", "-2.434930976390042E-10", "6.796316629792452E-10", "4.285549516638295E-10"]], "epoch": "2459153.5"}, "elements": [{"name": "e", "sigma": "5.9454E-7", "value": ".243538343527215", "title": "eccentricity", "units": null, "label": "e"}, {"sigma": "1.8002E-7", "name": "a", "units": "au", "value": "1.055960572262947", "title": "semi-major axis", "label": "a"}, {"label": "q", "units": "au", "title": "perihelion distance", "value": ".7987936836639788", "sigma": "4.9362E-7", "name": "q"}, {"value": "8.714394546489176", "title": "inclination; angle with respect to x-y ecliptic plane", "units": "deg", "name": "i", "sigma": "2.0715E-5", "label": "i"}, {"units": "deg", "value": "222.6540583146689", "title": "longitude of the ascending node", "sigma": "3.1229E-5", "name": "om", "label": "node"}, {"title": "argument of perihelion", "value": "265.7471569355238", "units": "deg", "name": "w", "sigma": "3.8048E-5", "label": "peri"}, {"title": "mean anomaly", "value": "352.8310904594736", "units": "deg", "name": "ma", "sigma": ".00044113", "label": "M"}, {"sigma": ".00048768", "name": "tp", "title": "time of perihelion passage", "value": "2461208.392608856971", "units": "TDB", "label": "tp"}, {"name": "per", "sigma": ".00010135", "value": "396.3418944606922", "title": "sidereal orbital period", "units": "d", "label": "period"}, {"label": "n", "value": ".9083067044675076", "title": "mean motion", "units": "deg/d", "name": "n", "sigma": "2.3227E-7"}, {"title": "aphelion distance", "value": "1.313127460861915", "units": "au", "name": "ad", "sigma": "2.2386E-7", "label": "Q"}], "epoch": "2461200.5"}